[{"OBJECT_NAME":"STARLINK-11251 [DTC]","OBJECT_ID":"2024-155G","EPOCH":"2026-03-16T21:13:19.611264","MEAN_MOTION":15.6971011,"ECCENTRICITY":0.0001255,"INCLINATION":53.1598,"RA_OF_ASC_NODE":305.6907,"ARG_OF_PERICENTER":111.3826,"MEAN_ANOMALY":248.7326,"EPHEMERIS_TYPE":0,"CLASSIFICATION_TYPE":"U","NORAD_CAT_ID":60930,"ELEMENT_SET_NO":999,"REV_AT_EPOCH":8953,"BSTAR":3.6736e-6,"MEAN_MOTION_DOT":-1.44e-6,"MEAN_MOTION_DDOT":0},{"OBJECT_NAME":"STARLINK-11204 [DTC]","OBJECT_ID":"2024-155H","EPOCH":"2026-03-16T21:06:15.763104","MEAN_MOTION":15.69702987,"ECCENTRICITY":0.0001195,"INCLINATION":53.16,"RA_OF_ASC_NODE":305.6543,"ARG_OF_PERICENTER":95.7691,"MEAN_ANOMALY":264.3463,"EPHEMERIS_TYPE":0,"CLASSIFICATION_TYPE":"U","NORAD_CAT_ID":60931,"ELEMENT_SET_NO":999,"REV_AT_EPOCH":8953,"BSTAR":2.1423e-5,"MEAN_MOTION_DOT":2.007e-5,"MEAN_MOTION_DDOT":0},{"OBJECT_NAME":"STARLINK-11246 [DTC]","OBJECT_ID":"2024-155J","EPOCH":"2026-03-16T20:59:11.927904","MEAN_MOTION":15.69714726,"ECCENTRICITY":0.0001346,"INCLINATION":53.158,"RA_OF_ASC_NODE":305.6251,"ARG_OF_PERICENTER":108.768,"MEAN_ANOMALY":251.3484,"EPHEMERIS_TYPE":0,"CLASSIFICATION_TYPE":"U","NORAD_CAT_ID":60932,"ELEMENT_SET_NO":999,"REV_AT_EPOCH":8953,"BSTAR":2.0586e-5,"MEAN_MOTION_DOT":1.906e-5,"MEAN_MOTION_DDOT":0},{"OBJECT_NAME":"STARLINK-11207 [DTC]","OBJECT_ID":"2024-155K","EPOCH":"2026-03-16T20:52:08.141952","MEAN_MOTION":15.69715438,"ECCENTRICITY":0.0001151,"INCLINATION":53.1588,"RA_OF_ASC_NODE":305.5917,"ARG_OF_PERICENTER":106.978,"MEAN_ANOMALY":253.1364,"EPHEMERIS_TYPE":0,"CLASSIFICATION_TYPE":"U","NORAD_CAT_ID":60933,"ELEMENT_SET_NO":999,"REV_AT_EPOCH":8953,"BSTAR":2.5279e-5,"MEAN_MOTION_DOT":2.475e-5,"MEAN_MOTION_DDOT":0},{"OBJECT_NAME":"STARLINK-11237 [DTC]","OBJECT_ID":"2024-155L","EPOCH":"2026-03-16T20:45:03.847104","MEAN_MOTION":15.69719597,"ECCENTRICITY":9.88e-5,"INCLINATION":53.1585,"RA_OF_ASC_NODE":305.5571,"ARG_OF_PERICENTER":97.765,"MEAN_ANOMALY":262.348,"EPHEMERIS_TYPE":0,"CLASSIFICATION_TYPE":"U","NORAD_CAT_ID":60934,"ELEMENT_SET_NO":999,"REV_AT_EPOCH":8954,"BSTAR":9.0243e-7,"MEAN_MOTION_DOT":-4.79e-6,"MEAN_MOTION_DDOT":0},{"OBJECT_NAME":"STARLINK-11253 [DTC]","OBJECT_ID":"2024-155M","EPOCH":"2026-03-16T20:31:05.852640","MEAN_MOTION":15.69699138,"ECCENTRICITY":9.28e-5,"INCLINATION":53.1574,"RA_OF_ASC_NODE":306.2275,"ARG_OF_PERICENTER":80.2164,"MEAN_ANOMALY":279.8958,"EPHEMERIS_TYPE":0,"CLASSIFICATION_TYPE":"U","NORAD_CAT_ID":60935,"ELEMENT_SET_NO":999,"REV_AT_EPOCH":8952,"BSTAR":7.107e-7,"MEAN_MOTION_DOT":-5.02e-6,"MEAN_MOTION_DDOT":0},{"OBJECT_NAME":"STARLINK-11241 [DTC]","OBJECT_ID":"2024-155N","EPOCH":"2026-03-16T20:24:00.919296","MEAN_MOTION":15.69709021,"ECCENTRICITY":0.000179,"INCLINATION":53.1585,"RA_OF_ASC_NODE":306.1931,"ARG_OF_PERICENTER":148.0159,"MEAN_ANOMALY":212.0968,"EPHEMERIS_TYPE":0,"CLASSIFICATION_TYPE":"U","NORAD_CAT_ID":60936,"ELEMENT_SET_NO":999,"REV_AT_EPOCH":8952,"BSTAR":2.3505e-5,"MEAN_MOTION_DOT":2.259e-5,"MEAN_MOTION_DDOT":0},{"OBJECT_NAME":"STARLINK-32259","OBJECT_ID":"2024-155P","EPOCH":"2026-03-16T18:39:00.592416","MEAN_MOTION":15.30195252,"ECCENTRICITY":0.0001301,"INCLINATION":53.1598,"RA_OF_ASC_NODE":96.9117,"ARG_OF_PERICENTER":98.5029,"MEAN_ANOMALY":261.6119,"EPHEMERIS_TYPE":0,"CLASSIFICATION_TYPE":"U","NORAD_CAT_ID":60937,"ELEMENT_SET_NO":999,"REV_AT_EPOCH":8742,"BSTAR":4.9093e-5,"MEAN_MOTION_DOT":1.095e-5,"MEAN_MOTION_DDOT":0},{"OBJECT_NAME":"STARLINK-32262","OBJECT_ID":"2024-155Q","EPOCH":"2026-03-16T20:00:01.999008","MEAN_MOTION":15.56304265,"ECCENTRICITY":0.0007514,"INCLINATION":53.1501,"RA_OF_ASC_NODE":77.3455,"ARG_OF_PERICENTER":51.0581,"MEAN_ANOMALY":151.3134,"EPHEMERIS_TYPE":0,"CLASSIFICATION_TYPE":"U","NORAD_CAT_ID":60938,"ELEMENT_SET_NO":999,"REV_AT_EPOCH":589,"BSTAR":0.0043607,"MEAN_MOTION_DOT":0.00325097,"MEAN_MOTION_DDOT":0},{"OBJECT_NAME":"STARLINK-32258","OBJECT_ID":"2024-155R","EPOCH":"2026-03-16T18:19:15.715776","MEAN_MOTION":15.30195497,"ECCENTRICITY":0.0001059,"INCLINATION":53.1599,"RA_OF_ASC_NODE":96.826,"ARG_OF_PERICENTER":100.5283,"MEAN_ANOMALY":259.5837,"EPHEMERIS_TYPE":0,"CLASSIFICATION_TYPE":"U","NORAD_CAT_ID":60939,"ELEMENT_SET_NO":999,"REV_AT_EPOCH":8737,"BSTAR":3.7717e-5,"MEAN_MOTION_DOT":7.58e-6,"MEAN_MOTION_DDOT":0},{"OBJECT_NAME":"STARLINK-32251","OBJECT_ID":"2024-155S","EPOCH":"2026-03-15T18:57:35.891136","MEAN_MOTION":15.30176244,"ECCENTRICITY":0.00010091,"INCLINATION":53.1596,"RA_OF_ASC_NODE":101.4198,"ARG_OF_PERICENTER":84.1974,"MEAN_ANOMALY":275.9142,"EPHEMERIS_TYPE":0,"CLASSIFICATION_TYPE":"U","NORAD_CAT_ID":60940,"ELEMENT_SET_NO":999,"REV_AT_EPOCH":8727,"BSTAR":-1.9446464e-5,"MEAN_MOTION_DOT":-9.34e-6,"MEAN_MOTION_DDOT":0},{"OBJECT_NAME":"STARLINK-32224","OBJECT_ID":"2024-155T","EPOCH":"2026-03-16T18:23:49.323840","MEAN_MOTION":15.3019493,"ECCENTRICITY":0.0001136,"INCLINATION":53.1613,"RA_OF_ASC_NODE":96.844,"ARG_OF_PERICENTER":99.4949,"MEAN_ANOMALY":260.618,"EPHEMERIS_TYPE":0,"CLASSIFICATION_TYPE":"U","NORAD_CAT_ID":60941,"ELEMENT_SET_NO":999,"REV_AT_EPOCH":8743,"BSTAR":2.8573e-5,"MEAN_MOTION_DOT":4.87e-6,"MEAN_MOTION_DDOT":0},{"OBJECT_NAME":"STARLINK-32184","OBJECT_ID":"2024-155U","EPOCH":"2026-03-16T18:34:26.861664","MEAN_MOTION":15.30194364,"ECCENTRICITY":0.0001853,"INCLINATION":53.1609,"RA_OF_ASC_NODE":96.8946,"ARG_OF_PERICENTER":77.8988,"MEAN_ANOMALY":282.222,"EPHEMERIS_TYPE":0,"CLASSIFICATION_TYPE":"U","NORAD_CAT_ID":60942,"ELEMENT_SET_NO":999,"REV_AT_EPOCH":8737,"BSTAR":2.1372e-6,"MEAN_MOTION_DOT":-2.96e-6,"MEAN_MOTION_DDOT":0},{"OBJECT_NAME":"STARLINK-32288","OBJECT_ID":"2024-155V","EPOCH":"2026-03-15T19:17:21.070176","MEAN_MOTION":15.30182436,"ECCENTRICITY":0.00013354,"INCLINATION":53.1609,"RA_OF_ASC_NODE":101.5012,"ARG_OF_PERICENTER":84.5375,"MEAN_ANOMALY":275.5778,"EPHEMERIS_TYPE":0,"CLASSIFICATION_TYPE":"U","NORAD_CAT_ID":60943,"ELEMENT_SET_NO":999,"REV_AT_EPOCH":8722,"BSTAR":-2.0746672e-5,"MEAN_MOTION_DOT":-9.73e-6,"MEAN_MOTION_DDOT":0},{"OBJECT_NAME":"STARLINK-32276","OBJECT_ID":"2024-155W","EPOCH":"2026-03-16T18:43:34.573728","MEAN_MOTION":15.30194961,"ECCENTRICITY":0.0001333,"INCLINATION":53.1619,"RA_OF_ASC_NODE":96.9282,"ARG_OF_PERICENTER":79.4647,"MEAN_ANOMALY":280.6504,"EPHEMERIS_TYPE":0,"CLASSIFICATION_TYPE":"U","NORAD_CAT_ID":60944,"ELEMENT_SET_NO":999,"REV_AT_EPOCH":8747,"BSTAR":2.2208e-5,"MEAN_MOTION_DOT":2.98e-6,"MEAN_MOTION_DDOT":0},{"OBJECT_NAME":"STARLINK-11289 [DTC]","OBJECT_ID":"2024-158B","EPOCH":"2026-03-16T17:34:40.543680","MEAN_MOTION":15.69705097,"ECCENTRICITY":0.0002759,"INCLINATION":53.1577,"RA_OF_ASC_NODE":246.3338,"ARG_OF_PERICENTER":102.7332,"MEAN_ANOMALY":257.3994,"EPHEMERIS_TYPE":0,"CLASSIFICATION_TYPE":"U","NORAD_CAT_ID":60991,"ELEMENT_SET_NO":999,"REV_AT_EPOCH":8870,"BSTAR":6.1567e-6,"MEAN_MOTION_DOT":1.55e-6,"MEAN_MOTION_DDOT":0},{"OBJECT_NAME":"STARLINK-11282 [DTC]","OBJECT_ID":"2024-158C","EPOCH":"2026-03-16T20:59:13.030368","MEAN_MOTION":15.69730653,"ECCENTRICITY":0.0001224,"INCLINATION":53.1573,"RA_OF_ASC_NODE":245.805,"ARG_OF_PERICENTER":129.623,"MEAN_ANOMALY":230.4896,"EPHEMERIS_TYPE":0,"CLASSIFICATION_TYPE":"U","NORAD_CAT_ID":60992,"ELEMENT_SET_NO":999,"REV_AT_EPOCH":8872,"BSTAR":-1.9969e-5,"MEAN_MOTION_DOT":-3.009e-5,"MEAN_MOTION_DDOT":0},{"OBJECT_NAME":"STARLINK-11283 [DTC]","OBJECT_ID":"2024-158D","EPOCH":"2026-03-16T20:16:59.579328","MEAN_MOTION":15.69711714,"ECCENTRICITY":8.95e-5,"INCLINATION":53.1587,"RA_OF_ASC_NODE":246.3453,"ARG_OF_PERICENTER":114.4215,"MEAN_ANOMALY":245.6896,"EPHEMERIS_TYPE":0,"CLASSIFICATION_TYPE":"U","NORAD_CAT_ID":60993,"ELEMENT_SET_NO":999,"REV_AT_EPOCH":8871,"BSTAR":-2.3933e-7,"MEAN_MOTION_DOT":-6.17e-6,"MEAN_MOTION_DDOT":0},{"OBJECT_NAME":"STARLINK-11267 [DTC]","OBJECT_ID":"2024-158E","EPOCH":"2026-03-16T04:53:05.766144","MEAN_MOTION":15.69714772,"ECCENTRICITY":0.00011819,"INCLINATION":53.1574,"RA_OF_ASC_NODE":249.4552,"ARG_OF_PERICENTER":119.4492,"MEAN_ANOMALY":240.6644,"EPHEMERIS_TYPE":0,"CLASSIFICATION_TYPE":"U","NORAD_CAT_ID":60994,"ELEMENT_SET_NO":999,"REV_AT_EPOCH":8861,"BSTAR":1.5726516e-5,"MEAN_MOTION_DOT":1.317e-5,"MEAN_MOTION_DDOT":0},{"OBJECT_NAME":"STARLINK-11269 [DTC]","OBJECT_ID":"2024-158F","EPOCH":"2026-03-16T04:46:00.978816","MEAN_MOTION":15.69728288,"ECCENTRICITY":1.768e-5,"INCLINATION":53.1578,"RA_OF_ASC_NODE":249.4156,"ARG_OF_PERICENTER":247.9514,"MEAN_ANOMALY":112.1485,"EPHEMERIS_TYPE":0,"CLASSIFICATION_TYPE":"U","NORAD_CAT_ID":60995,"ELEMENT_SET_NO":999,"REV_AT_EPOCH":8860,"BSTAR":1.8528807e-5,"MEAN_MOTION_DOT":1.66e-5,"MEAN_MOTION_DDOT":0},{"OBJECT_NAME":"STARLINK-11281 [DTC]","OBJECT_ID":"2024-158G","EPOCH":"2026-03-16T18:24:08.127936","MEAN_MOTION":15.69690954,"ECCENTRICITY":9.7e-5,"INCLINATION":53.1598,"RA_OF_ASC_NODE":246.5592,"ARG_OF_PERICENTER":38.4049,"MEAN_ANOMALY":321.7038,"EPHEMERIS_TYPE":0,"CLASSIFICATION_TYPE":"U","NORAD_CAT_ID":60996,"ELEMENT_SET_NO":999,"REV_AT_EPOCH":8869,"BSTAR":1.2322e-5,"MEAN_MOTION_DOT":9.04e-6,"MEAN_MOTION_DDOT":0},{"OBJECT_NAME":"STARLINK-11260 [DTC]","OBJECT_ID":"2024-158H","EPOCH":"2026-03-16T19:51:25.987104","MEAN_MOTION":15.69695002,"ECCENTRICITY":0.0001011,"INCLINATION":53.1601,"RA_OF_ASC_NODE":223.9151,"ARG_OF_PERICENTER":83.6296,"MEAN_ANOMALY":276.4837,"EPHEMERIS_TYPE":0,"CLASSIFICATION_TYPE":"U","NORAD_CAT_ID":60997,"ELEMENT_SET_NO":999,"REV_AT_EPOCH":8907,"BSTAR":4.7255e-6,"MEAN_MOTION_DOT":-1.6e-7,"MEAN_MOTION_DDOT":0},{"OBJECT_NAME":"STARLINK-11287 [DTC]","OBJECT_ID":"2024-158J","EPOCH":"2026-03-16T19:48:45.041184","MEAN_MOTION":15.69692642,"ECCENTRICITY":9.55e-5,"INCLINATION":53.159,"RA_OF_ASC_NODE":246.2116,"ARG_OF_PERICENTER":50.3598,"MEAN_ANOMALY":309.7504,"EPHEMERIS_TYPE":0,"CLASSIFICATION_TYPE":"U","NORAD_CAT_ID":60998,"ELEMENT_SET_NO":999,"REV_AT_EPOCH":8870,"BSTAR":-7.1862e-6,"MEAN_MOTION_DOT":-1.458e-5,"MEAN_MOTION_DDOT":0}]
